PROBA-1                 
1 26958U 01049B   26063.17990588  .00002318  00000+0  15390-3 0  9992
2 26958  97.9622  68.0676 0057005 117.1507 243.5548 15.06984992327803
CUTE-1 (CO-55)          
1 27844U 03031E   26063.01394075  .00000483  00000+0  22828-3 0  9997
2 27844  98.6778  72.8832 0010497 127.2783 232.9354 14.24260748176700
CUBESAT XI-IV (CO-57)   
1 27848U 03031J   26062.94998598  .00000409  00000+0  19861-3 0  9993
2 27848  98.6808  72.6171 0010137 144.0340 216.1522 14.23556668176405
APRIZESAT 4             
1 35684U 09041D   26063.12478337  .00001227  00000+0  15327-3 0  9994
2 35684  98.1498 136.3326 0042279 303.2843  56.4324 14.83696311895781
APRIZESAT 3             
1 35686U 09041F   26062.82485453  .00003314  00000+0  29057-3 0  9993
2 35686  98.1886 211.1211 0063231  55.8967 304.8230 14.95871944900623
PROBA-2                 
1 36037U 09059B   26063.01148315  .00000448  00000+0  11492-3 0  9997
2 36037  98.2426 247.8240 0012116 243.1294 116.8665 14.54786602866236
APRIZESAT 5             
1 37792U 11044E   26062.80953034  .00002074  00000+0  27015-3 0  9996
2 37792  98.2402 352.9200 0052165 343.6100  16.3423 14.80835068783192
APRIZESAT 6             
1 37793U 11044F   26062.99479376  .00001343  00000+0  19660-3 0  9994
2 37793  98.2423 331.3296 0044495  63.2498   1.7457 14.76737963781625
PROBA-V                 
1 39159U 13021A   26062.83173919  .00000116  00000+0  68828-4 0  9994
2 39159  98.3497  46.6905 0005381  83.2679 276.9113 14.23571895666126
APRIZESAT 7             
1 39416U 13066A   26063.08896552  .00002331  00000+0  23729-3 0  9993
2 39416  97.7589  17.9164 0035383 197.5028 162.4974 14.91260891665564
APRIZESAT 8             
1 39425U 13066K   26063.07099499  .00001960  00000+0  21908-3 0  9991
2 39425  97.8111  12.0950 0044599 272.1012  87.5097 14.87404319664042
BUGSAT-1 (TITA)         
1 40014U 14033E   26063.22048410  .00006451  00000+0  35167-3 0  9998
2 40014  98.0446 149.7342 0029079 176.6934 183.4494 15.14409590639947
SAUDISAT 4              
1 40016U 14033G   26063.01662852  .00001239  00000+0  17007-3 0  9991
2 40016  97.7400 212.8942 0046055  56.7905 303.7710 14.79377629630522
APRIZESAT 9             
1 40018U 14033J   26062.31964085  .00001393  00000+0  21201-3 0  9990
2 40018  97.8869 198.2216 0066394 179.5739 180.5538 14.74055785627966
APRIZESAT 10            
1 40019U 14033K   26062.81608990  .00001116  00000+0  18307-3 0  9992
2 40019  97.9469 192.2387 0077748 249.9317 109.3509 14.70739322626762
TECHDEMOSAT-1 (TDS-1)   
1 40076U 14037H   26062.83193320  .00015512  00000+0  92110-3 0  9996
2 40076  98.3763  44.7871 0004672 264.6647  95.4047 15.11414410632305
TECHNOSAT               
1 42829U 17042E   26062.90704929  .00006039  00000+0  43677-3 0  9992
2 42829  97.4143 224.6994 0019666  93.8219 266.5257 15.04225181470879
