[{"OBJECT_NAME":"PROBA-1","OBJECT_ID":"2001-049B","EPOCH":"2026-03-04T04:19:03.868032","MEAN_MOTION":15.06984992,"ECCENTRICITY":0.0057005,"INCLINATION":97.9622,"RA_OF_ASC_NODE":68.0676,"ARG_OF_PERICENTER":117.1507,"MEAN_ANOMALY":243.5548,"EPHEMERIS_TYPE":0,"CLASSIFICATION_TYPE":"U","NORAD_CAT_ID":26958,"ELEMENT_SET_NO":999,"REV_AT_EPOCH":32780,"BSTAR":0.0001539,"MEAN_MOTION_DOT":2.318e-5,"MEAN_MOTION_DDOT":0},{"OBJECT_NAME":"CUTE-1 (CO-55)","OBJECT_ID":"2003-031E","EPOCH":"2026-03-04T00:20:04.480800","MEAN_MOTION":14.24260748,"ECCENTRICITY":0.0010497,"INCLINATION":98.6778,"RA_OF_ASC_NODE":72.8832,"ARG_OF_PERICENTER":127.2783,"MEAN_ANOMALY":232.9354,"EPHEMERIS_TYPE":0,"CLASSIFICATION_TYPE":"U","NORAD_CAT_ID":27844,"ELEMENT_SET_NO":999,"REV_AT_EPOCH":17670,"BSTAR":0.00022828,"MEAN_MOTION_DOT":4.83e-6,"MEAN_MOTION_DDOT":0},{"OBJECT_NAME":"CUBESAT XI-IV (CO-57)","OBJECT_ID":"2003-031J","EPOCH":"2026-03-03T22:47:58.788672","MEAN_MOTION":14.23556668,"ECCENTRICITY":0.0010137,"INCLINATION":98.6808,"RA_OF_ASC_NODE":72.6171,"ARG_OF_PERICENTER":144.034,"MEAN_ANOMALY":216.1522,"EPHEMERIS_TYPE":0,"CLASSIFICATION_TYPE":"U","NORAD_CAT_ID":27848,"ELEMENT_SET_NO":999,"REV_AT_EPOCH":17640,"BSTAR":0.00019861,"MEAN_MOTION_DOT":4.09e-6,"MEAN_MOTION_DDOT":0},{"OBJECT_NAME":"APRIZESAT 4","OBJECT_ID":"2009-041D","EPOCH":"2026-03-04T02:59:41.283168","MEAN_MOTION":14.83696311,"ECCENTRICITY":0.0042279,"INCLINATION":98.1498,"RA_OF_ASC_NODE":136.3326,"ARG_OF_PERICENTER":303.2843,"MEAN_ANOMALY":56.4324,"EPHEMERIS_TYPE":0,"CLASSIFICATION_TYPE":"U","NORAD_CAT_ID":35684,"ELEMENT_SET_NO":999,"REV_AT_EPOCH":89578,"BSTAR":0.00015327,"MEAN_MOTION_DOT":1.227e-5,"MEAN_MOTION_DDOT":0},{"OBJECT_NAME":"APRIZESAT 3","OBJECT_ID":"2009-041F","EPOCH":"2026-03-03T19:47:47.431392","MEAN_MOTION":14.95871944,"ECCENTRICITY":0.0063231,"INCLINATION":98.1886,"RA_OF_ASC_NODE":211.1211,"ARG_OF_PERICENTER":55.8967,"MEAN_ANOMALY":304.823,"EPHEMERIS_TYPE":0,"CLASSIFICATION_TYPE":"U","NORAD_CAT_ID":35686,"ELEMENT_SET_NO":999,"REV_AT_EPOCH":90062,"BSTAR":0.00029057,"MEAN_MOTION_DOT":3.314e-5,"MEAN_MOTION_DDOT":0},{"OBJECT_NAME":"PROBA-2","OBJECT_ID":"2009-059B","EPOCH":"2026-03-04T00:16:32.144160","MEAN_MOTION":14.54786602,"ECCENTRICITY":0.0012116,"INCLINATION":98.2426,"RA_OF_ASC_NODE":247.824,"ARG_OF_PERICENTER":243.1294,"MEAN_ANOMALY":116.8665,"EPHEMERIS_TYPE":0,"CLASSIFICATION_TYPE":"U","NORAD_CAT_ID":36037,"ELEMENT_SET_NO":999,"REV_AT_EPOCH":86623,"BSTAR":0.00011492,"MEAN_MOTION_DOT":4.48e-6,"MEAN_MOTION_DDOT":0},{"OBJECT_NAME":"APRIZESAT 5","OBJECT_ID":"2011-044E","EPOCH":"2026-03-03T19:25:43.421376","MEAN_MOTION":14.80835068,"ECCENTRICITY":0.0052165,"INCLINATION":98.2402,"RA_OF_ASC_NODE":352.92,"ARG_OF_PERICENTER":343.61,"MEAN_ANOMALY":16.3423,"EPHEMERIS_TYPE":0,"CLASSIFICATION_TYPE":"U","NORAD_CAT_ID":37792,"ELEMENT_SET_NO":999,"REV_AT_EPOCH":78319,"BSTAR":0.00027015,"MEAN_MOTION_DOT":2.074e-5,"MEAN_MOTION_DDOT":0},{"OBJECT_NAME":"APRIZESAT 6","OBJECT_ID":"2011-044F","EPOCH":"2026-03-03T23:52:30.180864","MEAN_MOTION":14.76737963,"ECCENTRICITY":0.0044495,"INCLINATION":98.2423,"RA_OF_ASC_NODE":331.3296,"ARG_OF_PERICENTER":63.2498,"MEAN_ANOMALY":1.7457,"EPHEMERIS_TYPE":0,"CLASSIFICATION_TYPE":"U","NORAD_CAT_ID":37793,"ELEMENT_SET_NO":999,"REV_AT_EPOCH":78162,"BSTAR":0.0001966,"MEAN_MOTION_DOT":1.343e-5,"MEAN_MOTION_DDOT":0},{"OBJECT_NAME":"PROBA-V","OBJECT_ID":"2013-021A","EPOCH":"2026-03-03T19:57:42.266016","MEAN_MOTION":14.23571895,"ECCENTRICITY":0.0005381,"INCLINATION":98.3497,"RA_OF_ASC_NODE":46.6905,"ARG_OF_PERICENTER":83.2679,"MEAN_ANOMALY":276.9113,"EPHEMERIS_TYPE":0,"CLASSIFICATION_TYPE":"U","NORAD_CAT_ID":39159,"ELEMENT_SET_NO":999,"REV_AT_EPOCH":66612,"BSTAR":6.8828e-5,"MEAN_MOTION_DOT":1.16e-6,"MEAN_MOTION_DDOT":0},{"OBJECT_NAME":"APRIZESAT 7","OBJECT_ID":"2013-066A","EPOCH":"2026-03-04T02:08:06.620928","MEAN_MOTION":14.91260891,"ECCENTRICITY":0.0035383,"INCLINATION":97.7589,"RA_OF_ASC_NODE":17.9164,"ARG_OF_PERICENTER":197.5028,"MEAN_ANOMALY":162.4974,"EPHEMERIS_TYPE":0,"CLASSIFICATION_TYPE":"U","NORAD_CAT_ID":39416,"ELEMENT_SET_NO":999,"REV_AT_EPOCH":66556,"BSTAR":0.00023729,"MEAN_MOTION_DOT":2.331e-5,"MEAN_MOTION_DDOT":0},{"OBJECT_NAME":"APRIZESAT 8","OBJECT_ID":"2013-066K","EPOCH":"2026-03-04T01:42:13.967136","MEAN_MOTION":14.87404319,"ECCENTRICITY":0.0044599,"INCLINATION":97.8111,"RA_OF_ASC_NODE":12.095,"ARG_OF_PERICENTER":272.1012,"MEAN_ANOMALY":87.5097,"EPHEMERIS_TYPE":0,"CLASSIFICATION_TYPE":"U","NORAD_CAT_ID":39425,"ELEMENT_SET_NO":999,"REV_AT_EPOCH":66404,"BSTAR":0.00021908,"MEAN_MOTION_DOT":1.96e-5,"MEAN_MOTION_DDOT":0},{"OBJECT_NAME":"BUGSAT-1 (TITA)","OBJECT_ID":"2014-033E","EPOCH":"2026-03-04T05:17:29.826240","MEAN_MOTION":15.1440959,"ECCENTRICITY":0.0029079,"INCLINATION":98.0446,"RA_OF_ASC_NODE":149.7342,"ARG_OF_PERICENTER":176.6934,"MEAN_ANOMALY":183.4494,"EPHEMERIS_TYPE":0,"CLASSIFICATION_TYPE":"U","NORAD_CAT_ID":40014,"ELEMENT_SET_NO":999,"REV_AT_EPOCH":63994,"BSTAR":0.00035167,"MEAN_MOTION_DOT":6.451e-5,"MEAN_MOTION_DDOT":0},{"OBJECT_NAME":"SAUDISAT 4","OBJECT_ID":"2014-033G","EPOCH":"2026-03-04T00:23:56.704128","MEAN_MOTION":14.79377629,"ECCENTRICITY":0.0046055,"INCLINATION":97.74,"RA_OF_ASC_NODE":212.8942,"ARG_OF_PERICENTER":56.7905,"MEAN_ANOMALY":303.771,"EPHEMERIS_TYPE":0,"CLASSIFICATION_TYPE":"U","NORAD_CAT_ID":40016,"ELEMENT_SET_NO":999,"REV_AT_EPOCH":63052,"BSTAR":0.00017007,"MEAN_MOTION_DOT":1.239e-5,"MEAN_MOTION_DDOT":0},{"OBJECT_NAME":"APRIZESAT 9","OBJECT_ID":"2014-033J","EPOCH":"2026-03-03T07:40:16.969440","MEAN_MOTION":14.74055785,"ECCENTRICITY":0.00663948,"INCLINATION":97.8869,"RA_OF_ASC_NODE":198.2216,"ARG_OF_PERICENTER":179.5739,"MEAN_ANOMALY":180.5538,"EPHEMERIS_TYPE":0,"CLASSIFICATION_TYPE":"U","NORAD_CAT_ID":40018,"ELEMENT_SET_NO":999,"REV_AT_EPOCH":62796,"BSTAR":0.0002120113,"MEAN_MOTION_DOT":1.393e-5,"MEAN_MOTION_DDOT":0},{"OBJECT_NAME":"APRIZESAT 10","OBJECT_ID":"2014-033K","EPOCH":"2026-03-03T19:35:10.167360","MEAN_MOTION":14.70739322,"ECCENTRICITY":0.0077748,"INCLINATION":97.9469,"RA_OF_ASC_NODE":192.2387,"ARG_OF_PERICENTER":249.9317,"MEAN_ANOMALY":109.3509,"EPHEMERIS_TYPE":0,"CLASSIFICATION_TYPE":"U","NORAD_CAT_ID":40019,"ELEMENT_SET_NO":999,"REV_AT_EPOCH":62676,"BSTAR":0.00018307,"MEAN_MOTION_DOT":1.116e-5,"MEAN_MOTION_DDOT":0},{"OBJECT_NAME":"TECHDEMOSAT-1 (TDS-1)","OBJECT_ID":"2014-037H","EPOCH":"2026-03-03T19:57:59.028480","MEAN_MOTION":15.1141441,"ECCENTRICITY":0.0004672,"INCLINATION":98.3763,"RA_OF_ASC_NODE":44.7871,"ARG_OF_PERICENTER":264.6647,"MEAN_ANOMALY":95.4047,"EPHEMERIS_TYPE":0,"CLASSIFICATION_TYPE":"U","NORAD_CAT_ID":40076,"ELEMENT_SET_NO":999,"REV_AT_EPOCH":63230,"BSTAR":0.0009211,"MEAN_MOTION_DOT":0.00015512,"MEAN_MOTION_DDOT":0},{"OBJECT_NAME":"TECHNOSAT","OBJECT_ID":"2017-042E","EPOCH":"2026-03-03T21:46:09.058656","MEAN_MOTION":15.04225181,"ECCENTRICITY":0.0019666,"INCLINATION":97.4143,"RA_OF_ASC_NODE":224.6994,"ARG_OF_PERICENTER":93.8219,"MEAN_ANOMALY":266.5257,"EPHEMERIS_TYPE":0,"CLASSIFICATION_TYPE":"U","NORAD_CAT_ID":42829,"ELEMENT_SET_NO":999,"REV_AT_EPOCH":47087,"BSTAR":0.00043677,"MEAN_MOTION_DOT":6.039e-5,"MEAN_MOTION_DDOT":0}]
